NORAD_CAT_ID,OBJECT_NAME,OBJECT_TYPE,EPOCH,MEAN_MOTION,ECCENTRICITY,INCLINATION,RA_OF_ASC_NODE,ARG_OF_PERICENTER,MEAN_ANOMALY,BSTAR,MEAN_MOTION_DOT,MEAN_MOTION_DDOT,TLE_LINE0,TLE_LINE1,TLE_LINE2,SEMIMAJOR_AXIS,PERIOD,APOGEE,PERIGEE,DECAYED
52675.0,STARLINK-3934,PAYLOAD,2023-06-29 10:31:07,15.08845767,9.97e-05,53.2156,242.5975,79.4349,280.6755,0.0001005,1.312e-05,0.0,0 STARLINK-3934,1 52675U 22053V   23180.43828124  .00001312  00000-0  10050-3 0  9999,2 52675  53.2156 242.5975 0000997  79.4349 280.6755 15.08845767 62152,6917.863,95.437,540.417,539.038,0.0
52675.0,STARLINK-3934,PAYLOAD,2023-06-30 13:32:40,15.0884471,0.0001042,53.2154,237.5431,76.4149,283.696,0.00011058,1.473e-05,0.0,0 STARLINK-3934,1 52675U 22053V   23181.56436156  .00001473  00000-0  11058-3 0  9991,2 52675  53.2154 237.5431 0001042  76.4149 283.6960 15.08844710 62325,6917.866,95.437,540.452,539.01,0.0
52675.0,STARLINK-3934,PAYLOAD,2023-07-01 08:37:18,15.08835693,0.0001037,53.2153,233.9741,79.022,281.0888,2.9904e-05,1.88e-06,0.0,0 STARLINK-3934,1 52675U 22053V   23182.35924695  .00000188  00000-0  29904-4 0  9991,2 52675  53.2153 233.9741 0001037  79.0220 281.0888 15.08835693 62445,6917.894,95.438,540.476,539.041,0.0
52675.0,STARLINK-3934,PAYLOAD,2023-07-02 10:03:28,15.08841863,0.0001053,53.2151,229.2168,82.2584,277.8528,0.0001153,1.548e-05,0.0,0 STARLINK-3934,1 52675U 22053V   23183.41908481  .00001548  00000-0  11530-3 0  9990,2 52675  53.2151 229.2168 0001053  82.2584 277.8528 15.08841863 62609,6917.875,95.437,540.468,539.011,0.0
52675.0,STARLINK-3934,PAYLOAD,2023-07-03 11:29:39,15.08842125,0.0001089,53.2151,224.4591,83.4019,276.7097,0.00012968,1.777e-05,0.0,0 STARLINK-3934,1 52675U 22053V   23184.47892497  .00001777  00000-0  12968-3 0  9996,2 52675  53.2151 224.4591 0001089  83.4019 276.7097 15.08842125 62769,6917.874,95.437,540.492,538.986,0.0
52675.0,STARLINK-3934,PAYLOAD,2023-07-04 01:48:07,15.08836938,0.0001057,53.215,221.7829,85.2802,274.831,2.4893e-05,1.08e-06,0.0,0 STARLINK-3934,1 52675U 22053V   23185.07508768  .00000108  00000-0  24893-4 0  9996,2 52675  53.2150 221.7829 0001057  85.2802 274.8310 15.08836938 62859,6917.89,95.438,540.486,539.024,0.0
52675.0,STARLINK-3934,PAYLOAD,2023-07-05 08:00:27,15.08840964,0.0001057,53.2161,216.1326,89.9842,270.1272,7.2441e-05,8.65e-06,0.0,0 STARLINK-3934,1 52675U 22053V   23186.33364890  .00000865  00000-0  72441-4 0  9994,2 52675  53.2161 216.1326 0001057  89.9842 270.1272 15.08840964 63048,6917.877,95.437,540.474,539.011,0.0
52675.0,STARLINK-3934,PAYLOAD,2023-07-06 04:40:27,15.08859233,0.000112,53.2159,212.2665,83.057,277.0549,-0.0002231,-3.839e-05,0.0,0 STARLINK-3934,1 52675U 22053V   23187.19476320 -.00003839  00000-0 -22310-3 0  9996,2 52675  53.2159 212.2665 0001120  83.0570 277.0549 15.08859233 63178,6917.822,95.436,540.461,538.912,0.0
52675.0,STARLINK-3934,PAYLOAD,2023-07-06 11:02:00,15.08841432,0.0001055,53.216,211.0771,88.3647,271.7466,0.00010324,1.356e-05,0.0,0 STARLINK-3934,1 52675U 22053V   23187.45972957  .00001356  00000-0  10324-3 0  9994,2 52675  53.2160 211.0771 0001055  88.3647 271.7466 15.08841432 63211,6917.876,95.437,540.471,539.011,0.0
52675.0,STARLINK-3934,PAYLOAD,2023-07-07 18:49:43,15.08842037,0.0001099,53.2161,205.1298,85.0881,275.0236,6.2286e-05,7.04e-06,0.0,0 STARLINK-3934,1 52675U 22053V   23188.78452900  .00000704  00000-0  62286-4 0  9993,2 52675  53.2161 205.1298 0001099  85.0881 275.0236 15.08842037 63418,6917.874,95.437,540.499,538.979,0.0
52675.0,STARLINK-3934,PAYLOAD,2023-07-09 01:02:03,15.08838373,0.0001136,53.2164,199.4787,92.1015,268.0107,-3.9615e-06,-3.51e-06,0.0,0 STARLINK-3934,1 52675U 22053V   23190.04309274 -.00000351  00000-0 -39615-5 0  9991,2 52675  53.2164 199.4787 0001136  92.1015 268.0107 15.08838373 63607,6917.885,95.438,540.536,538.964,0.0
52675.0,STARLINK-3934,PAYLOAD,2023-07-10 07:14:22,15.08838129,0.0001082,53.2159,193.8301,85.924,274.1876,5.4486e-05,5.79e-06,0.0,0 STARLINK-3934,1 52675U 22053V   23191.30165207  .00000579  00000-0  54486-4 0  9999,2 52675  53.2159 193.8301 0001082  85.9240 274.1876 15.08838129 63791,6917.886,95.438,540.5,539.003,0.0
52675.0,STARLINK-3934,PAYLOAD,2023-07-11 10:15:56,15.08838199,0.0001091,53.2161,188.7745,83.4983,276.6134,7.0687e-05,8.37e-06,0.0,0 STARLINK-3934,1 52675U 22053V   23192.42773390  .00000837  00000-0  70687-4 0  9999,2 52675  53.2161 188.7745 0001091  83.4983 276.6134 15.08838199 63966,6917.886,95.438,540.506,538.996,0.0
52675.0,STARLINK-3934,PAYLOAD,2023-07-12 16:28:16,15.08838721,0.0001094,53.2164,183.1247,88.0832,272.0285,3.6705e-05,2.96e-06,0.0,0 STARLINK-3934,1 52675U 22053V   23193.68629681  .00000296  00000-0  36705-4 0  9993,2 52675  53.2164 183.1247 0001094  88.0832 272.0285 15.08838721 64152,6917.884,95.438,540.506,538.992,0.0
52675.0,STARLINK-3934,PAYLOAD,2023-07-14 08:12:54,15.08838873,0.000121,53.2162,175.6887,88.9215,271.1916,4.6028e-05,4.45e-06,0.0,0 STARLINK-3934,1 52675U 22053V   23195.34229868  .00000445  00000-0  46028-4 0  9996,2 52675  53.2162 175.6887 0001210  88.9215 271.1916 15.08838873 64407,6917.884,95.438,540.586,538.912,0.0
52675.0,STARLINK-3934,PAYLOAD,2023-07-15 09:39:03,15.08852406,0.0001228,53.2163,170.9312,88.3023,271.811,0.00014432,2.01e-05,0.0,0 STARLINK-3934,1 52675U 22053V   23196.40212517  .00002010  00000-0  14432-3 0  9990,2 52675  53.2163 170.9312 0001228  88.3023 271.8110 15.08852406 64567,6917.842,95.437,540.557,538.858,0.0
52675.0,STARLINK-3934,PAYLOAD,2023-07-15 16:00:37,15.0883496,0.0001138,53.2167,169.7411,105.0023,255.1095,1.7155e-05,-1.5e-07,0.0,0 STARLINK-3934,1 52675U 22053V   23196.66709882 -.00000015  00000-0  17155-4 0  9994,2 52675  53.2167 169.7411 0001138 105.0023 255.1095 15.08834960 64601,6917.896,95.438,540.548,538.974,0.0
52675.0,STARLINK-3934,PAYLOAD,2023-07-17 07:45:15,15.08842883,0.0001494,53.2164,162.3102,129.5626,230.5498,4.6334e-05,4.5e-06,0.0,0 STARLINK-3934,1 52675U 22053V   23198.32309693  .00000450  00000-0  46334-4 0  9998,2 52675  53.2164 162.3102 0001494 129.5626 230.5498 15.08842883 64853,6917.872,95.437,540.77,538.703,0.0
52675.0,STARLINK-3934,PAYLOAD,2023-07-19 02:40:40,15.0884772,0.0001399,53.2167,154.2809,107.1409,252.9737,-0.00032097,-5.394e-05,0.0,0 STARLINK-3934,1 52675U 22053V   23200.11157598 -.00005394  00000-0 -32097-3 0  9998,2 52675  53.2167 154.2809 0001399 107.1409 252.9737 15.08847720 65125,6917.857,95.437,540.69,538.754,0.0
52675.0,STARLINK-3934,PAYLOAD,2023-07-19 07:26:49,15.0884461,0.0001145,53.2165,153.3877,96.5125,263.5997,0.00010517,1.387e-05,0.0,0 STARLINK-3934,1 52675U 22053V   23200.31029875  .00001387  00000-0  10517-3 0  9995,2 52675  53.2165 153.3877 0001145  96.5125 263.5997 15.08844610 65157,6917.866,95.437,540.523,538.939,0.0
52675.0,STARLINK-3934,PAYLOAD,2023-07-20 23:11:28,15.08836699,0.0001226,53.2167,145.9554,98.8605,261.2526,0.00011524,1.547e-05,0.0,0 STARLINK-3934,1 52675U 22053V   23201.96630743  .00001547  00000-0  11524-3 0  9996,2 52675  53.2167 145.9554 0001226  98.8605 261.2526 15.08836699 65405,6917.89,95.438,540.604,538.907,0.0
52675.0,STARLINK-3934,PAYLOAD,2023-07-21 05:33:01,15.08844593,0.0001255,53.2183,144.767,95.4971,264.6164,0.00017337,2.473e-05,0.0,0 STARLINK-3934,1 52675U 22053V   23202.23126342  .00002473  00000-0  17337-3 0  9999,2 52675  53.2183 144.7670 0001255  95.4971 264.6164 15.08844593 65441,6917.866,95.437,540.6,538.863,0.0
52675.0,STARLINK-3934,PAYLOAD,2023-07-24 05:05:23,15.0883484,0.0001245,53.2196,131.3844,50.9767,309.1335,0.00018128,2.598e-05,0.0,0 STARLINK-3934,1 52675U 22053V   23205.21207177  .00002598  00000-0  18128-3 0  9993,2 52675  53.2196 131.3844 0001245  50.9767 309.1335 15.08834840 66325,6917.896,95.438,540.622,538.9,0.0
52675.0,STARLINK-3934,PAYLOAD,2023-07-24 22:34:37,15.08839099,0.0001238,53.2169,128.1133,85.5081,274.6053,3.0757e-06,-2.39e-06,0.0,0 STARLINK-3934,1 52675U 22053V   23205.94071305 -.00000239  00000-0  30757-5 0  9990,2 52675  53.2169 128.1133 0001238  85.5081 274.6053 15.08839099 66431,6917.883,95.438,540.605,538.892,0.0
52675.0,STARLINK-3934,PAYLOAD,2023-07-26 04:46:56,15.08841621,0.0001511,53.2167,122.4606,106.7985,253.3173,9.9471e-05,1.296e-05,0.0,0 STARLINK-3934,1 52675U 22053V   23207.19927050  .00001296  00000-0  99471-4 0  9996,2 52675  53.2167 122.4606 0001511 106.7985 253.3173 15.08841621 66626,6917.875,95.437,540.786,538.695,0.0
52675.0,STARLINK-3934,PAYLOAD,2023-07-27 01:26:57,15.08847387,0.0001331,53.2157,118.5946,94.4801,265.6343,0.00016848,2.395e-05,0.0,0 STARLINK-3934,1 52675U 22053V   23208.06038596  .00002395  00000-0  16848-3 0  9998,2 52675  53.2157 118.5946 0001331  94.4801 265.6343 15.08847387 66752,6917.858,95.437,540.644,538.802,0.0
52675.0,STARLINK-3934,PAYLOAD,2023-07-28 01:17:45,15.08833104,0.0001136,53.216,114.1346,99.401,260.7111,-6.6517e-05,-1.346e-05,0.0,0 STARLINK-3934,1 52675U 22053V   23209.05399549 -.00001346  00000-0 -66517-4 0  9992,2 52675  53.2160 114.1346 0001136  99.4010 260.7111 15.08833104 66472,6917.901,95.438,540.552,538.981,0.0
52675.0,STARLINK-3934,PAYLOAD,2023-07-28 02:53:08,15.08832401,0.000117,53.2165,113.8383,98.6878,261.4247,-7.7876e-05,-1.527e-05,0.0,0 STARLINK-3934,1 52675U 22053V   23209.12023601 -.00001527  00000-0 -77876-4 0  9994,2 52675  53.2165 113.8383 0001170  98.6878 261.4247 15.08832401 66911,6917.904,95.438,540.578,538.959,0.0
52675.0,STARLINK-3934,PAYLOAD,2023-07-28 23:33:08,15.08843705,0.0001078,53.2163,109.9733,85.1635,274.948,9.6064e-05,1.242e-05,0.0,0 STARLINK-3934,1 52675U 22053V   23209.98135366  .00001242  00000-0  96064-4 0  9992,2 52675  53.2163 109.9733 0001078  85.1635 274.9480 15.08843705 66617,6917.869,95.437,540.48,538.988,0.0
52675.0,STARLINK-3934,PAYLOAD,2023-07-29 02:43:54,15.08853374,0.0001322,53.2171,109.3788,90.4533,269.661,0.00026774,3.977e-05,0.0,0 STARLINK-3934,1 52675U 22053V   23210.11382952  .00003977  00000-0  26774-3 0  9991,2 52675  53.2171 109.3788 0001322  90.4533 269.6610 15.08853374 66639,6917.84,95.437,540.619,538.79,0.0
